Subject:
MAJOR BODY #C(500@0)_T(502) (1/1)
From:
Horizons Ephemeris System <horizons@ssd.jpl.nasa.gov>
Date:
Fri, 24 Sep 2004 13:03:12 -0700 (PDT)

 Automated mail xmit by PORT_LOGIN, PID=   16757 Fri Sep 24 13:03:12 2004
++++++++++++++++++++++++++++++++ (part 1 of 1)  +++++++++++++++++++++++++++++++

*******************************************************************************
Ephemeris / PORT_LOGIN Fri Sep 24 13:03:05 2004  Pasadena, USA   / Horizons    
*******************************************************************************
Target body name: Europa (502)                    {source: JUP230}
Center body name: Solar System Barycenter (0)     {source: DE-0406LE-0406}
Center-site name: BODYCENTRIC
*******************************************************************************
Start time      : A.D. 1968-Dec-20 00:00:00.0000 CT 
Stop  time      : A.D. 1968-Dec-29 00:00:00.0000 CT 
Step-size       : 60 minutes
*******************************************************************************
Center geodetic : 0.000000,  0.000000,  0.00000   {E-lon(deg),Lat(deg),Alt(km)}
Center cylindric: 0.00000,     0.000,     0.000   {E-lon(deg),Dxy(km),Dz(km)}
Center radii    : (undefined)                                                  
Output units    : AU-D                                                         
Output format   : 03
Reference frame : ICRF/J2000.0                                                 
Output type     : GEOMETRIC cartesian states
Coordinate systm: Ecliptic and Mean Equinox of Reference Epoch                 
*******************************************************************************
JDCT 
   X     Y     Z
   VX    VY    VZ
   LT    RG    RR
*******************************************************************************
$$SOE
2440213.000000000 = A.D. 1968-Dec-22 12:00:00.0000 (CT)
  -5.414494250399810E+00  4.922335262504040E-01  1.191227793664021E-01
   1.139144049951849E-03 -1.481173389247892E-02 -1.325942490318752E-04
   3.140800578645397E-02  5.438127625253151E+00 -2.477785891879355E-03
2440213.041666667 = A.D. 1968-Dec-22 13:00:00.0000 (CT)
  -5.414435155811355E+00  4.916194854138338E-01  1.191175240372068E-01
   1.695588563032552E-03 -1.465545278870636E-02 -1.195045561394357E-04
   3.140734449440119E-02  5.438013126083574E+00 -3.015769765641444E-03
2440213.083333333 = A.D. 1968-Dec-22 14:00:00.0000 (CT)
  -5.414353122344207E+00  4.910127977039653E-01  1.191128332692698E-01
   2.239723157835150E-03 -1.445891724908047E-02 -1.055066874410712E-04
   3.140655558783981E-02  5.437876531146783E+00 -3.537912744676688E-03
2440213.125000000 = A.D. 1968-Dec-22 15:00:00.0000 (CT)
  -5.414248723461771E+00  4.904151222633246E-01  1.191087434465530E-01
   2.768649915146242E-03 -1.422303195514398E-02 -9.067137964839313E-05
   3.140564321549554E-02  5.437718558772362E+00 -4.041428172606286E-03
2440213.166666667 = A.D. 1968-Dec-22 16:00:00.0000 (CT)
  -5.414122652212167E+00  4.898280762202938E-01  1.191052879056878E-01
   3.279529115694563E-03 -1.394890857594951E-02 -7.507412035192723E-05
   3.140461218791624E-02  5.437540041880857E+00 -4.523604692980229E-03
2440213.208333333 = A.D. 1968-Dec-22 17:00:00.0000 (CT)
  -5.413975718498826E+00  4.892532261126265E-01  1.191024967441676E-01
   3.769593873082312E-03 -1.363786329606241E-02 -5.879484818632330E-05
   3.140346795764978E-02  5.437341924551664E+00 -4.981820400746512E-03
2440213.250000000 = A.D. 1968-Dec-22 18:00:00.0000 (CT)
  -5.413808845738925E+00  4.886920794352357E-01  1.191003966416487E-01
   4.236164878339102E-03 -1.329141331710536E-02 -4.191762323415573E-05
   3.140221659601018E-02  5.437125258000219E+00 -5.413557038284893E-03
2440213.291666667 = A.D. 1968-Dec-22 19:00:00.0000 (CT)
  -5.413623066905907E+00  4.881460763556126E-01  1.190990106956133E-01
   4.676665210873790E-03 -1.291127230611273E-02 -2.453026730458043E-05
   3.140086476642668E-02  5.436891195963533E+00 -5.816414191407100E-03
2440213.333333333 = A.D. 1968-Dec-22 20:00:00.0000 (CT)
  -5.413419519954523E+00  4.876165816412646E-01  1.190983582726469E-01
   5.088635153679385E-03 -1.249934476522739E-02 -6.723974211866903E-06
   3.139941969438230E-02  5.436640989495205E+00 -6.188123423511915E-03
2440213.375000000 = A.D. 1968-Dec-22 21:00:00.0000 (CT)
  -5.413199442630001E+00  4.871048768449016E-01  1.190984548765714E-01
   5.469746922697988E-03 -1.205771928045190E-02  1.140710954699156E-05
   3.139788913396754E-02  5.436375981174391E+00 -6.526562256208122E-03
2440213.416666667 = A.D. 1968-Dec-22 22:00:00.0000 (CT)
  -5.412964166667448E+00  4.866121527956160E-01  1.190993120346611E-01
   5.817819179362906E-03 -1.158866056654256E-02  2.976633338854803E-05
   3.139628133110114E-02  5.436097598737659E+00 -6.829767859785683E-03
2440213.458333333 = A.D. 1968-Dec-22 23:00:00.0000 (CT)
  -5.412715111394226E+00  4.861395024491045E-01  1.191009372031622E-01
   6.130831139591092E-03 -1.109460015498703E-02  4.825502073651127E-05
   3.139460498351045E-02  5.435807348149817E+00 -7.095950254532561E-03
2440213.500000000 = A.D. 1968-Dec-23 00:00:00.0000 (CT)
  -5.412453776757205E+00  4.856879141584197E-01  1.191033336933687E-01
   6.406936019987867E-03 -1.057812546661674E-02  6.677297799732836E-05
   3.139286919762110E-02  5.435506806139586E+00 -7.323504741668035E-03
2440213.541666667 = A.D. 1968-Dec-23 01:00:00.0000 (CT)
  -5.412181735792958E+00  4.852582654148983E-01  1.191065006193772E-01
   6.644474646948990E-03 -1.004196868631094E-02  8.521902171113828E-05
   3.139108344247713E-02  5.435197612221118E+00 -7.511024512332600E-03
2440213.583333333 = A.D. 1968-Dec-23 02:00:00.0000 (CT)
  -5.411900626546118E+00  4.848513170798692E-01  1.191104328683007E-01
   6.841987642273526E-03 -9.488993348886967E-03  1.034915351346789E-04
   3.138925750072453E-02  5.434881460207060E+00 -7.657311666164149E-03
2440213.625000000 = A.D. 1968-Dec-23 03:00:00.0000 (CT)
  -5.411612143502148E+00  4.844677082081056E-01  1.191151210940928E-01
   6.998227131596934E-03 -8.922180201345492E-03  1.214890417242959E-04
   3.138740141708382E-02  5.434560089286858E+00 -7.761387720035336E-03
2440213.666666667 = A.D. 1968-Dec-23 04:00:00.0000 (CT)
  -5.411318028548582E+00  4.841079514829137E-01  1.191205517357729E-01
   7.112167382340683E-03 -8.344611668847285E-03  1.391108005675213E-04
   3.138552544439604E-02  5.434235274684905E+00 -7.822502953037897E-03
2440213.708333333 = A.D. 1968-Dec-23 05:00:00.0000 (CT)
  -5.411020061515774E+00  4.837724293200750E-01  1.191267070606079E-01
   7.183014363258345E-03 -7.759455315262262E-03  1.562574102197701E-04
   3.138363998755880E-02  5.433908817953382E+00 -7.840144611613916E-03
2440213.750000000 = A.D. 1968-Dec-23 06:00:00.0000 (CT)
  -5.410720050345318E+00  4.834613906843152E-01  1.191335652327054E-01
   7.210214035367505E-03 -7.169946201848527E-03  1.728314235035609E-04
   3.138175554564711E-02  5.433582536950763E+00 -7.814043772763273E-03
2440213.791666667 = A.D. 1968-Dec-23 07:00:00.0000 (CT)
  -5.410419820941613E+00  4.831749486616360E-01  1.191411004073450E-01
   7.193459250256197E-03 -6.579368268136656E-03  1.887379672930769E-04
   3.137988265255554E-02  5.433258255564365E+00 -7.744180748577792E-03
2440213.833333333 = A.D. 1968-Dec-23 08:00:00.0000 (CT)
  -5.410121206767172E+00  4.829130788255844E-01  1.191492828511401E-01
   7.132695130823177E-03 -5.991034864186254E-03  2.038853615248463E-04
   3.137803181652733E-02  5.432937793240103E+00 -7.630788914472909E-03
2440213.875000000 = A.D. 1968-Dec-23 09:00:00.0000 (CT)
  -5.409826038247435E+00  4.826756184299858E-01  1.191580790878758E-01
   7.028122815125924E-03 -5.408268571898401E-03  2.181857317639509E-04
   3.137621345896313E-02  5.432622954387560E+00 -7.474356849552763E-03
2440213.916666667 = A.D. 1968-Dec-23 10:00:00.0000 (CT)
  -5.409536132055600E+00  4.824622664547045E-01  1.191674520696379E-01
   6.880201455306422E-03 -4.834380464125989E-03  2.315556096480169E-04
   3.137443785292784E-02  5.432315517732788E+00 -7.275628689625412E-03
2440213.958333333 = A.D. 1968-Dec-23 11:00:00.0000 (CT)
  -5.409253280352148E+00  4.822725845245427E-01  1.191773613726089E-01
   6.689648379680548E-03 -4.272648963041964E-03  2.439165154619062E-04
   3.137271506179612E-02  5.432017225695090E+00 -7.035602610550164E-03
2440214.000000000 = A.D. 1968-Dec-23 12:00:00.0000 (CT)
  -5.408979240057155E+00  4.821059987143745E-01  1.191877634166629E-01
   6.457437346150077E-03 -3.726298472720273E-03  2.551955169979492E-04
   3.137105487849402E-02  5.431729773867062E+00 -6.755527380914828E-03
2440214.041666667 = A.D. 1968-Dec-23 13:00:00.0000 (CT)
  -5.408715722236038E+00  4.819618022460451E-01  1.191986117076511E-01
   6.184794838264715E-03 -3.198477974273535E-03  2.653257587635286E-04
   3.136946676580669E-02  5.431454800679152E+00 -6.436896947570160E-03
2440214.083333333 = A.D. 1968-Dec-23 14:00:00.0000 (CT)
  -5.408464381680866E+00  4.818391590744555E-01  1.192098571010148E-01
   5.873194380663052E-03 -2.692239784292330E-03  2.742469555431356E-04
   3.136795979822669E-02  5.431193877331044E+00 -6.081443044350493E-03
2440214.125000000 = A.D. 1968-Dec-23 15:00:00.0000 (CT)
  -5.408226806769764E+00  4.817371083516557E-01  1.192214480851165E-01
   5.524348877393860E-03 -2.210518687861215E-03  2.819058443394505E-04
   3.136654260581753E-02  5.430948498071916E+00 -5.691125842438875E-03
2440214.166666667 = A.D. 1968-Dec-23 16:00:00.0000 (CT)
  -5.408004509686267E+00  4.816545697488011E-01  1.192333310824348E-01
   5.140201003900319E-03 -1.756111665203231E-03  2.882565888409969E-04
   3.136522332055827E-02  5.430720070910295E+00 -5.268122689341931E-03
2440214.208333333 = A.D. 1968-Dec-23 17:00:00.0000 (CT)
  -5.407798917078594E+00  4.815903496065898E-01  1.192454507665226E-01
   4.722911710377756E-03 -1.331658435145649E-03  2.932611308261085E-04
   3.136400952562075E-02  5.430509908831685E+00 -4.814815011370554E-03
